GRBBETA                 
1 60237U 24128C   26068.70717138  .00006748  00000+0  46404-3 0  9996
2 60237  61.9904 205.0764 0051339 114.1677 246.4795 15.05794613 91289
STARLINK-36132          
1 67028U 25293AB  26068.48234300 -.00008334  00000+0 -69178-3 0  9993
2 67028  70.0004  95.1029 0003835 273.1454  86.9266 14.98312738 14858
